GLOBALSTAR M084 [+]     
1 38040U 11080A   23272.97338462 -.00000068  00000+0  19894-3 0  9991
2 38040  51.9996 154.8991 0000950  82.1768  23.5752 12.62266340543861
GLOBALSTAR M080 [+]     
1 38041U 11080B   23273.43624662 -.00000057  00000+0  25928-3 0  9997
2 38041  52.0048 154.8762 0001158  75.5368  94.9156 12.62264920543908
GLOBALSTAR M082 [+]     
1 38042U 11080C   23272.71600895 -.00000074  00000+0  16589-3 0  9992
2 38042  52.0058 112.4470 0000212  95.7824 340.7522 12.62271362544556
GLOBALSTAR M092 [+]     
1 38043U 11080D   23273.07145998 -.00000092  00000+0  66920-4 0  9996
2 38043  52.0074 201.7076 0000788  92.1733 280.7048 12.62272303543097
GLOBALSTAR M090 [+]     
1 38044U 11080E   23273.52135020 -.00000089  00000+0  80561-4 0  9995
2 38044  51.9869 104.6098 0000583  72.4233 305.8099 12.62278027544648
GLOBALSTAR M086 [+]     
1 38045U 11080F   23272.51891297 -.00000070  00000+0  18768-3 0  9998
2 38045  51.9879 108.1644 0001439  42.3334 338.7959 12.62262972544524
GLOBALSTAR M097 [+]     
1 39072U 13005A   23272.62018739 -.00000111  00000+0 -39382-4 0  9995
2 39072  52.0070  21.7672 0000429  75.2910 284.8004 12.62270642491766
GLOBALSTAR M093 [+]     
1 39073U 13005B   23273.54382602 -.00000092  00000+0  65800-4 0  9992
2 39073  51.9836  13.2601 0000426  43.0419 317.0480 12.62266913491872
